[{"OBJECT_NAME":"STARLINK-6326","OBJECT_ID":"2023-078W","EPOCH":"2026-03-09T22:36:03.602304","MEAN_MOTION":14.98329674,"ECCENTRICITY":0.0001755,"INCLINATION":70.0003,"RA_OF_ASC_NODE":323.7288,"ARG_OF_PERICENTER":274.6103,"MEAN_ANOMALY":85.4855,"EPHEMERIS_TYPE":0,"CLASSIFICATION_TYPE":"U","NORAD_CAT_ID":56787,"ELEMENT_SET_NO":999,"REV_AT_EPOCH":15321,"BSTAR":-3.0224546e-5,"MEAN_MOTION_DOT":-4.53e-6,"MEAN_MOTION_DDOT":0},{"OBJECT_NAME":"SKYCRAFT-4B","OBJECT_ID":"2025-154D","EPOCH":"2026-03-09T23:31:04.324224","MEAN_MOTION":14.96290027,"ECCENTRICITY":0.00045249,"INCLINATION":97.6762,"RA_OF_ASC_NODE":135.4663,"ARG_OF_PERICENTER":218.6003,"MEAN_ANOMALY":141.4895,"EPHEMERIS_TYPE":0,"CLASSIFICATION_TYPE":"U","NORAD_CAT_ID":64872,"ELEMENT_SET_NO":999,"REV_AT_EPOCH":3420,"BSTAR":0.00083632264,"MEAN_MOTION_DOT":9.402e-5,"MEAN_MOTION_DDOT":0}]
